{
  "type": "FeatureCollection",
  "name": "Nepal 2026 approved M1 search and review areas",
  "bbox": [
    84.7,
    27.75,
    85.65,
    28.45
  ],
  "properties": {
    "status": "approved_m1_search_review",
    "event_date": "2026-08-26",
    "storage_crs": "EPSG:4326",
    "analysis_crs": "EPSG:32645",
    "claim_boundary": "Approved search and review extents; not mapped change polygons or event attribution.",
    "approval_scope": "M1 source discovery, review, and ArcGIS organization",
    "approval_ref": "records/source-gates/aoi-approval.json",
    "reviewed_source_sha256": "68c406f7f41c301c339e200ccdd75194183c483c65156ab3949e64236072ccde"
  },
  "features": [
    {
      "type": "Feature",
      "id": "AOI-OVERVIEW",
      "properties": {
        "aoi_id": "AOI-OVERVIEW",
        "name": "Regional overview",
        "purpose": "Regional source-to-downstream context",
        "status": "approved_m1_search_review",
        "source_ref": "records/source-gates/aoi-approval.json",
        "coordinate_storage": "RFC 7946 longitude/latitude",
        "storage_crs": "EPSG:4326",
        "analysis_crs": "EPSG:32645",
        "owner_approval_required": false,
        "reviewed_feature_id": "AOI-OVERVIEW-DRAFT",
        "reviewed_source_sha256": "68c406f7f41c301c339e200ccdd75194183c483c65156ab3949e64236072ccde"
      },
      "bbox": [
        84.7,
        27.75,
        85.65,
        28.45
      ],
      "geometry": {
        "type": "Polygon",
        "coordinates": [
          [
            [
              84.7,
              27.75
            ],
            [
              85.65,
              27.75
            ],
            [
              85.65,
              28.45
            ],
            [
              84.7,
              28.45
            ],
            [
              84.7,
              27.75
            ]
          ]
        ]
      }
    },
    {
      "type": "Feature",
      "id": "AOI-SOURCE",
      "properties": {
        "aoi_id": "AOI-SOURCE",
        "name": "Source area",
        "purpose": "Candidate debris-avalanche source and immediate path",
        "status": "approved_m1_search_review",
        "source_ref": "records/source-gates/aoi-approval.json",
        "coordinate_storage": "RFC 7946 longitude/latitude",
        "storage_crs": "EPSG:4326",
        "analysis_crs": "EPSG:32645",
        "owner_approval_required": false,
        "reviewed_feature_id": "AOI-SOURCE-DRAFT",
        "reviewed_source_sha256": "68c406f7f41c301c339e200ccdd75194183c483c65156ab3949e64236072ccde"
      },
      "bbox": [
        85.46,
        28.23,
        85.58,
        28.34
      ],
      "geometry": {
        "type": "Polygon",
        "coordinates": [
          [
            [
              85.46,
              28.23
            ],
            [
              85.58,
              28.23
            ],
            [
              85.58,
              28.34
            ],
            [
              85.46,
              28.34
            ],
            [
              85.46,
              28.23
            ]
          ]
        ]
      }
    },
    {
      "type": "Feature",
      "id": "AOI-UPPER-CORRIDOR",
      "properties": {
        "aoi_id": "AOI-UPPER-CORRIDOR",
        "name": "Upper corridor",
        "purpose": "Candidate Bhote Koshi\u2013Trishuli change corridor",
        "status": "approved_m1_search_review",
        "source_ref": "records/source-gates/aoi-approval.json",
        "coordinate_storage": "RFC 7946 longitude/latitude",
        "storage_crs": "EPSG:4326",
        "analysis_crs": "EPSG:32645",
        "owner_approval_required": false,
        "reviewed_feature_id": "AOI-UPPER-CORRIDOR-DRAFT",
        "reviewed_source_sha256": "68c406f7f41c301c339e200ccdd75194183c483c65156ab3949e64236072ccde"
      },
      "bbox": [
        85.28,
        28.1,
        85.45,
        28.38
      ],
      "geometry": {
        "type": "Polygon",
        "coordinates": [
          [
            [
              85.28,
              28.1
            ],
            [
              85.45,
              28.1
            ],
            [
              85.45,
              28.38
            ],
            [
              85.28,
              28.38
            ],
            [
              85.28,
              28.1
            ]
          ]
        ]
      }
    }
  ]
}
