{
  "type": "FeatureCollection",
  "name": "Nepal 2026 draft study areas",
  "bbox": [
    84.7,
    27.75,
    85.65,
    28.45
  ],
  "properties": {
    "status": "draft",
    "event_date": "2026-08-26",
    "storage_crs": "EPSG:4326",
    "analysis_crs": "EPSG:32645",
    "claim_boundary": "Planning geometry only; not approved event or acquisition geometry."
  },
  "features": [
    {
      "type": "Feature",
      "id": "AOI-OVERVIEW-DRAFT",
      "properties": {
        "aoi_id": "AOI-OVERVIEW-DRAFT",
        "name": "Regional overview",
        "purpose": "Regional source-to-downstream context",
        "status": "draft",
        "source_ref": "docs/DATA_AND_METHODS_PLAN.md#draft-areas-of-interest",
        "coordinate_storage": "RFC 7946 longitude/latitude",
        "storage_crs": "EPSG:4326",
        "analysis_crs": "EPSG:32645",
        "owner_approval_required": true
      },
      "bbox": [
        84.7,
        27.75,
        85.65,
        28.45
      ],
      "geometry": {
        "type": "Polygon",
        "coordinates": [
          [
            [
              84.7,
              27.75
            ],
            [
              85.65,
              27.75
            ],
            [
              85.65,
              28.45
            ],
            [
              84.7,
              28.45
            ],
            [
              84.7,
              27.75
            ]
          ]
        ]
      }
    },
    {
      "type": "Feature",
      "id": "AOI-SOURCE-DRAFT",
      "properties": {
        "aoi_id": "AOI-SOURCE-DRAFT",
        "name": "Source area",
        "purpose": "Candidate debris-avalanche source and immediate path",
        "status": "draft",
        "source_ref": "docs/DATA_AND_METHODS_PLAN.md#draft-areas-of-interest",
        "coordinate_storage": "RFC 7946 longitude/latitude",
        "storage_crs": "EPSG:4326",
        "analysis_crs": "EPSG:32645",
        "owner_approval_required": true
      },
      "bbox": [
        85.46,
        28.23,
        85.58,
        28.34
      ],
      "geometry": {
        "type": "Polygon",
        "coordinates": [
          [
            [
              85.46,
              28.23
            ],
            [
              85.58,
              28.23
            ],
            [
              85.58,
              28.34
            ],
            [
              85.46,
              28.34
            ],
            [
              85.46,
              28.23
            ]
          ]
        ]
      }
    },
    {
      "type": "Feature",
      "id": "AOI-UPPER-CORRIDOR-DRAFT",
      "properties": {
        "aoi_id": "AOI-UPPER-CORRIDOR-DRAFT",
        "name": "Upper corridor",
        "purpose": "Candidate Bhote Koshi–Trishuli change corridor",
        "status": "draft",
        "source_ref": "docs/DATA_AND_METHODS_PLAN.md#draft-areas-of-interest",
        "coordinate_storage": "RFC 7946 longitude/latitude",
        "storage_crs": "EPSG:4326",
        "analysis_crs": "EPSG:32645",
        "owner_approval_required": true
      },
      "bbox": [
        85.28,
        28.1,
        85.45,
        28.38
      ],
      "geometry": {
        "type": "Polygon",
        "coordinates": [
          [
            [
              85.28,
              28.1
            ],
            [
              85.45,
              28.1
            ],
            [
              85.45,
              28.38
            ],
            [
              85.28,
              28.38
            ],
            [
              85.28,
              28.1
            ]
          ]
        ]
      }
    }
  ]
}
